{"type": "FeatureCollection", "features": [ {"type": "Feature", "properties": {"norad_id": 34375, "name": "IRIDIUM 33 DEB", "group": "iridium-33-debris", "lat": -16.478521085181583, "lon": -176.71365448477616, "alt_km": 904.7968772696659, "timestamp": "2025-12-08T15:42:50.180429+00:00", "meta": {"OBJECT_NAME": "IRIDIUM 33 DEB", "OBJECT_ID": "1997-051FT", "EPOCH": "2025-12-08T08:10:03.316224", "MEAN_MOTION": 14.17980902, "ECCENTRICITY": 0.01029885, "INCLINATION": 86.4327, "RA_OF_ASC_NODE": 184.4704, "ARG_OF_PERICENTER": 140.568, "MEAN_ANOMALY": 39.4332, "EPHEMERIS_TYPE": 0, "CLASSIFICATION_TYPE": "U", "NORAD_CAT_ID": 34375, "ELEMENT_SET_NO": 999, "REV_AT_EPOCH": 86649, "BSTAR": 0.00070210736, "MEAN_MOTION_DOT": 1.533e-05, "MEAN_MOTION_DDOT": 0}, "tle": {"line1": "1 34375U 97051FT  25342.34031616  .00001533  00000+0  70211-3 0  9999", "line2": "2 34375  86.4327 184.4704 0102988 140.5680  39.4332 14.17980902866492"}}, "geometry": {"type": "Point", "coordinates": [-176.71365448477616, -16.478521085181583]}}, {"type": "Feature", "properties": {"norad_id": 34376, "name": "IRIDIUM 33 DEB", "group": "iridium-33-debris", "lat": 61.91613751218736, "lon": 15.344924746878878, "alt_km": 688.13558354621, "timestamp": "2025-12-08T15:42:50.180440+00:00", "meta": {"OBJECT_NAME": "IRIDIUM 33 DEB", "OBJECT_ID": "1997-051FU", "EPOCH": "2025-12-08T02:17:33.169056", "MEAN_MOTION": 14.62466554, "ECCENTRICITY": 0.00266365, "INCLINATION": 86.2983, "RA_OF_ASC_NODE": 8.6274, "ARG_OF_PERICENTER": 182.3953, "MEAN_ANOMALY": 177.7135, "EPHEMERIS_TYPE": 0, "CLASSIFICATION_TYPE": "U", "NORAD_CAT_ID": 34376, "ELEMENT_SET_NO": 999, "REV_AT_EPOCH": 87939, "BSTAR": 0.00182497, "MEAN_MOTION_DOT": 9.315e-05, "MEAN_MOTION_DDOT": 0}, "tle": {"line1": "1 34376U 97051FU  25342.09552279  .00009315  00000+0  18250-2 0  9995", "line2": "2 34376  86.2983   8.6274 0026636 182.3953 177.7135 14.62466554879392"}}, "geometry": {"type": "Point", "coordinates": [15.344924746878878, 61.91613751218736]}}, {"type": "Feature", "properties": {"norad_id": 34486, "name": "IRIDIUM 33 DEB", "group": "iridium-33-debris", "lat": 27.180467157451652, "lon": -167.9466763462172, "alt_km": 571.5959486262454, "timestamp": "2025-12-08T15:42:50.180451+00:00", "meta": {"OBJECT_NAME": "IRIDIUM 33 DEB", "OBJECT_ID": "1997-051GB", "EPOCH": "2025-12-08T02:25:43.952160", "MEAN_MOTION": 14.95478287, "ECCENTRICITY": 0.00133393, "INCLINATION": 86.3928, "RA_OF_ASC_NODE": 14.165, "ARG_OF_PERICENTER": 127.4344, "MEAN_ANOMALY": 286.985, "EPHEMERIS_TYPE": 0, "CLASSIFICATION_TYPE": "U", "NORAD_CAT_ID": 34486, "ELEMENT_SET_NO": 999, "REV_AT_EPOCH": 88917, "BSTAR": 0.002502216, "MEAN_MOTION_DOT": 0.00027835, "MEAN_MOTION_DDOT": 0}, "tle": {"line1": "1 34486U 97051GB  25342.10120315  .00027835  00000+0  25022-2 0  9993", "line2": "2 34486  86.3928  14.1650 0013339 127.4344 286.9850 14.95478287889170"}}, "geometry": {"type": "Point", "coordinates": [-167.9466763462172, 27.180467157451652]}}, {"type": "Feature", "properties": {"norad_id": 34487, "name": "IRIDIUM 33 DEB", "group": "iridium-33-debris", "lat": -38.31685012371589, "lon": -162.96766347872912, "alt_km": 749.2089135750175, "timestamp": "2025-12-08T15:42:50.180461+00:00", "meta": {"OBJECT_NAME": "IRIDIUM 33 DEB", "OBJECT_ID": "1997-051GC", "EPOCH": "2025-12-08T08:07:14.868192", "MEAN_MOTION": 14.43208344, "ECCENTRICITY": 0.00324214, "INCLINATION": 86.3438, "RA_OF_ASC_NODE": 14.2722, "ARG_OF_PERICENTER": 142.2384, "MEAN_ANOMALY": 232.9824, "EPHEMERIS_TYPE": 0, "CLASSIFICATION_TYPE": "U", "NORAD_CAT_ID": 34487, "ELEMENT_SET_NO": 999, "REV_AT_EPOCH": 88185, "BSTAR": 0.00035758899, "MEAN_MOTION_DOT": 1.229e-05, "MEAN_MOTION_DDOT": 0}, "tle": {"line1": "1 34487U 97051GC  25342.33836653  .00001229  00000+0  35759-3 0  9996", "line2": "2 34487  86.3438  14.2722 0032421 142.2384 232.9824 14.43208344881857"}}, "geometry": {"type": "Point", "coordinates": [-162.96766347872912, -38.31685012371589]}}, {"type": "Feature", "properties": {"norad_id": 34488, "name": "IRIDIUM 33 DEB", "group": "iridium-33-debris", "lat": 11.24892318486894, "lon": -51.4334526292583, "alt_km": 476.50742848745085, "timestamp": "2025-12-08T15:42:50.180472+00:00", "meta": {"OBJECT_NAME": "IRIDIUM 33 DEB", "OBJECT_ID": "1997-051GD", "EPOCH": "2025-12-08T04:39:41.324256", "MEAN_MOTION": 15.2778749, "ECCENTRICITY": 0.00145734, "INCLINATION": 86.3245, "RA_OF_ASC_NODE": 308.0615, "ARG_OF_PERICENTER": 57.8431, "MEAN_ANOMALY": 302.4228, "EPHEMERIS_TYPE": 0, "CLASSIFICATION_TYPE": "U", "NORAD_CAT_ID": 34488, "ELEMENT_SET_NO": 999, "REV_AT_EPOCH": 89170, "BSTAR": 0.005400302, "MEAN_MOTION_DOT": 0.00149623, "MEAN_MOTION_DDOT": 0}, "tle": {"line1": "1 34488U 97051GD  25342.19422829  .00149623  00000+0  54003-2 0  9990", "line2": "2 34488  86.3245 308.0615 0014573  57.8431 302.4228 15.27787490891704"}}, "geometry": {"type": "Point", "coordinates": [-51.4334526292583, 11.24892318486894]}}, {"type": "Feature", "properties": {"norad_id": 34492, "name": "IRIDIUM 33 DEB", "group": "iridium-33-debris", "lat": -24.201927183078077, "lon": 157.8680922478714, "alt_km": 718.57428768523, "timestamp": "2025-12-08T15:42:50.180482+00:00", "meta": {"OBJECT_NAME": "IRIDIUM 33 DEB", "OBJECT_ID": "1997-051GH", "EPOCH": "2025-12-07T23:50:44.784960", "MEAN_MOTION": 14.25534668, "ECCENTRICITY": 0.0189621, "INCLINATION": 86.4724, "RA_OF_ASC_NODE": 336.5463, "ARG_OF_PERICENTER": 253.6464, "MEAN_ANOMALY": 161.0806, "EPHEMERIS_TYPE": 0, "CLASSIFICATION_TYPE": "U", "NORAD_CAT_ID": 34492, "ELEMENT_SET_NO": 999, "REV_AT_EPOCH": 84991, "BSTAR": 0.0068533726, "MEAN_MOTION_DOT": 0.00019616, "MEAN_MOTION_DDOT": 0}, "tle": {"line1": "1 34492U 97051GH  25341.99357390  .00019616  00000+0  68534-2 0  9994", "line2": "2 34492  86.4724 336.5463 0189621 253.6464 161.0806 14.25534668849919"}}, "geometry": {"type": "Point", "coordinates": [157.8680922478714, -24.201927183078077]}}, {"type": "Feature", "properties": {"norad_id": 34497, "name": "IRIDIUM 33 DEB", "group": "iridium-33-debris", "lat": 58.176939201176666, "lon": 60.167597704353526, "alt_km": 770.8391133759214, "timestamp": "2025-12-08T15:42:50.180493+00:00", "meta": {"OBJECT_NAME": "IRIDIUM 33 DEB", "OBJECT_ID": "1997-051GN", "EPOCH": "2025-12-08T05:36:30.454848", "MEAN_MOTION": 14.27433857, "ECCENTRICITY": 0.00792669, "INCLINATION": 86.2781, "RA_OF_ASC_NODE": 54.3266, "ARG_OF_PERICENTER": 354.2573, "MEAN_ANOMALY": 60.9681, "EPHEMERIS_TYPE": 0, "CLASSIFICATION_TYPE": "U", "NORAD_CAT_ID": 34497, "ELEMENT_SET_NO": 999, "REV_AT_EPOCH": 86819, "BSTAR": 0.00099948943, "MEAN_MOTION_DOT": 2.553e-05, "MEAN_MOTION_DDOT": 0}, "tle": {"line1": "1 34497U 97051GN  25342.23368582  .00002553  00000+0  99949-3 0  9999", "line2": "2 34497  86.2781  54.3266 0079266 354.2573  60.9681 14.27433857868192"}}, "geometry": {"type": "Point", "coordinates": [60.167597704353526, 58.176939201176666]}}, {"type": "Feature", "properties": {"norad_id": 34508, "name": "IRIDIUM 33 DEB", "group": "iridium-33-debris", "lat": 54.03680432718227, "lon": 109.39338549478866, "alt_km": 790.0768329093899, "timestamp": "2025-12-08T15:42:50.180503+00:00", "meta": {"OBJECT_NAME": "IRIDIUM 33 DEB", "OBJECT_ID": "1997-051GZ", "EPOCH": "2025-12-07T19:25:27.527232", "MEAN_MOTION": 14.38361799, "ECCENTRICITY": 0.00657554, "INCLINATION": 86.3707, "RA_OF_ASC_NODE": 104.7333, "ARG_OF_PERICENTER": 188.9848, "MEAN_ANOMALY": 171.0179, "EPHEMERIS_TYPE": 0, "CLASSIFICATION_TYPE": "U", "NORAD_CAT_ID": 34508, "ELEMENT_SET_NO": 999, "REV_AT_EPOCH": 87238, "BSTAR": 0.0028505421, "MEAN_MOTION_DOT": 8.927e-05, "MEAN_MOTION_DDOT": 0}, "tle": {"line1": "1 34508U 97051GZ  25341.80934638  .00008927  00000+0  28505-2 0  9995", "line2": "2 34508  86.3707 104.7333 0065755 188.9848 171.0179 14.38361799872383"}}, "geometry": {"type": "Point", "coordinates": [109.39338549478866, 54.03680432718227]}}, {"type": "Feature", "properties": {"norad_id": 34521, "name": "IRIDIUM 33 DEB", "group": "iridium-33-debris", "lat": -46.31296267722184, "lon": -143.85336710030305, "alt_km": 688.6204674366527, "timestamp": "2025-12-08T15:42:50.180514+00:00", "meta": {"OBJECT_NAME": "IRIDIUM 33 DEB", "OBJECT_ID": "1997-051HN", "EPOCH": "2025-12-08T04:50:07.608480", "MEAN_MOTION": 14.63305419, "ECCENTRICITY": 0.00011357, "INCLINATION": 86.38, "RA_OF_ASC_NODE": 32.5459, "ARG_OF_PERICENTER": 246.9783, "MEAN_ANOMALY": 113.1309, "EPHEMERIS_TYPE": 0, "CLASSIFICATION_TYPE": "U", "NORAD_CAT_ID": 34521, "ELEMENT_SET_NO": 999, "REV_AT_EPOCH": 88406, "BSTAR": 0.0012081732, "MEAN_MOTION_DOT": 6.254e-05, "MEAN_MOTION_DDOT": 0}, "tle": {"line1": "1 34521U 97051HN  25342.20147695  .00006254  00000+0  12082-2 0  9998", "line2": "2 34521  86.3800  32.5459 0001135 246.9783 113.1309 14.63305419884069"}}, "geometry": {"type": "Point", "coordinates": [-143.85336710030305, -46.31296267722184]}}, {"type": "Feature", "properties": {"norad_id": 34525, "name": "IRIDIUM 33 DEB", "group": "iridium-33-debris", "lat": -14.630556987222567, "lon": 47.63857826014672, "alt_km": 755.987459094018, "timestamp": "2025-12-08T15:42:50.180525+00:00", "meta": {"OBJECT_NAME": "IRIDIUM 33 DEB", "OBJECT_ID": "1997-051HS", "EPOCH": "2025-12-08T04:25:55.398144", "MEAN_MOTION": 14.42888438, "ECCENTRICITY": 0.00066276, "INCLINATION": 86.373, "RA_OF_ASC_NODE": 48.7879, "ARG_OF_PERICENTER": 105.7109, "MEAN_ANOMALY": 319.5931, "EPHEMERIS_TYPE": 0, "CLASSIFICATION_TYPE": "U", "NORAD_CAT_ID": 34525, "ELEMENT_SET_NO": 999, "REV_AT_EPOCH": 88022, "BSTAR": 0.00055007035, "MEAN_MOTION_DOT": 1.856e-05, "MEAN_MOTION_DDOT": 0}, "tle": {"line1": "1 34525U 97051HS  25342.18466896  .00001856  00000+0  55007-3 0  9994", "line2": "2 34525  86.3730  48.7879 0006627 105.7109 319.5931 14.42888438880226"}}, "geometry": {"type": "Point", "coordinates": [47.63857826014672, -14.630556987222567]}}]}